{"type": "FeatureCollection", "features": [{"type": "Feature", "properties": {"id": "losacio-2022", "nombre": "Incendio de Losacio (Sierra de la Culebra II)", "anio": 2022, "hectareas": 35960, "provincia": "Zamora", "causa": "Rayo (tormenta seca)", "nota": "El mayor incendio registrado en Castilla y Le\u00f3n. Falleci\u00f3 un bombero y un ganadero.", "fuente": "Wikipedia \u2014 Incendios de la sierra de la Culebra de 2022", "perimetro": "aproximado (generado por IA, pendiente de revisi\u00f3n)"}, "geometry": {"type": "Polygon", "coordinates": [[[-5.8783, 41.71], [-5.954, 41.7514], [-6.0011, 41.79], [-6.072, 41.7773], [-6.1614, 41.7484], [-6.1563, 41.673], [-6.1023, 41.6036], [-6.0041, 41.6425], [-5.9265, 41.6514], [-5.8783, 41.71]]]}}, {"type": "Feature", "properties": {"id": "ferreras-2022", "nombre": "Incendio de Ferreras de Arriba (Sierra de la Culebra I)", "anio": 2022, "hectareas": 29670, "provincia": "Zamora", "causa": "Rayo (tormenta seca)", "nota": "Primer gran incendio de la Culebra (15 de junio de 2022). Junto al de Losacio arras\u00f3 el coraz\u00f3n de la reserva regional de caza.", "fuente": "Wikipedia \u2014 Incendios de la sierra de la Culebra de 2022", "perimetro": "aproximado (generado por IA, pendiente de revisi\u00f3n)"}, "geometry": {"type": "Polygon", "coordinates": [[[-6.1611, 41.86], [-6.1677, 41.9052], [-6.2195, 41.9465], [-6.2793, 41.9107], [-6.3272, 41.8836], [-6.3621, 41.8269], [-6.3006, 41.7818], [-6.2236, 41.7907], [-6.1443, 41.8002], [-6.1611, 41.86]]]}}, {"type": "Feature", "properties": {"id": "a-rua-2025", "nombre": "Incendio de A R\u00faa / Larouco", "anio": 2025, "hectareas": 44400, "provincia": "Ourense", "causa": "En investigaci\u00f3n", "nota": "El mayor incendio del catastr\u00f3fico agosto de 2025 en Galicia.", "fuente": "EFFIS / prensa (agosto 2025)", "perimetro": "aproximado (generado por IA, pendiente de revisi\u00f3n)"}, "geometry": {"type": "Polygon", "coordinates": [[[-6.9236, 42.4], [-7.0273, 42.4451], [-7.0694, 42.5281], [-7.1826, 42.5056], [-7.221, 42.4325], [-7.2034, 42.3722], [-7.1957, 42.2776], [-7.0777, 42.3066], [-7.0206, 42.3508], [-6.9236, 42.4]]]}}, {"type": "Feature", "properties": {"id": "molezuelas-2025", "nombre": "Incendio de Molezuelas de la Carballeda \u2013 U\u00f1a de Quintana", "anio": 2025, "hectareas": 40800, "provincia": "Zamora/Le\u00f3n", "causa": "En investigaci\u00f3n", "nota": "Oblig\u00f3 a evacuar a m\u00e1s de 700 personas y afect\u00f3 al entorno de Las M\u00e9dulas (Patrimonio de la Humanidad).", "fuente": "EFFIS / prensa (agosto 2025)", "perimetro": "aproximado (generado por IA, pendiente de revisi\u00f3n)"}, "geometry": {"type": "Polygon", "coordinates": [[[-6.1007, 42.08], [-6.0683, 42.162], [-6.1742, 42.1884], [-6.284, 42.188], [-6.3509, 42.1208], [-6.3333, 42.044], [-6.2921, 41.9616], [-6.178, 41.9875], [-6.0902, 42.0116], [-6.1007, 42.08]]]}}, {"type": "Feature", "properties": {"id": "chandrexa-2025", "nombre": "Incendio de Chandrexa de Queixa", "anio": 2025, "hectareas": 15800, "provincia": "Ourense", "causa": "Intencionado (investigado)", "nota": "Unificado con el foco de Requeixo; arras\u00f3 el macizo central ourensano.", "fuente": "Wikipedia \u2014 Incendios forestales de Espa\u00f1a de 2025", "perimetro": "aproximado (generado por IA, pendiente de revisi\u00f3n)"}, "geometry": {"type": "Polygon", "coordinates": [[[-7.3238, 42.23], [-7.3584, 42.2745], [-7.4112, 42.3088], [-7.4755, 42.2883], [-7.5227, 42.255], [-7.4853, 42.2151], [-7.4649, 42.1852], [-7.4172, 42.1764], [-7.3833, 42.201], [-7.3238, 42.23]]]}}, {"type": "Feature", "properties": {"id": "jarilla-2025", "nombre": "Incendio de Jarilla", "anio": 2025, "hectareas": 17000, "provincia": "C\u00e1ceres", "causa": "En investigaci\u00f3n", "nota": "Amenaz\u00f3 el valle del Jerte y el Ambroz; superficie aproximada.", "fuente": "forestry.es \u2014 GIF 2025", "perimetro": "aproximado (generado por IA, pendiente de revisi\u00f3n)"}, "geometry": {"type": "Polygon", "coordinates": [[[-5.9495, 40.17], [-5.9721, 40.2007], [-6.0073, 40.2251], [-6.0675, 40.2328], [-6.0938, 40.1905], [-6.0941, 40.1494], [-6.0545, 40.1243], [-6.0074, 40.1154], [-5.9333, 40.1144], [-5.9495, 40.17]]]}}, {"type": "Feature", "properties": {"id": "caminomorisco-2025", "nombre": "Incendio de Caminomorisco (Las Hurdes)", "anio": 2025, "hectareas": 2778, "provincia": "C\u00e1ceres", "causa": "En investigaci\u00f3n", "nota": "Unas 200 personas evacuadas; tres bomberos heridos.", "fuente": "Wikipedia \u2014 Incendios forestales de Espa\u00f1a de 2025", "perimetro": "aproximado (generado por IA, pendiente de revisi\u00f3n)"}, "geometry": {"type": "Polygon", "coordinates": [[[-6.2412, 40.32], [-6.251, 40.3385], [-6.2753, 40.3403], [-6.3004, 40.3469], [-6.3052, 40.327], [-6.3102, 40.3116], [-6.3036, 40.2888], [-6.2733, 40.291], [-6.252, 40.3021], [-6.2412, 40.32]]]}}, {"type": "Feature", "properties": {"id": "arafo-2023", "nombre": "Incendio de Arafo\u2013Candelaria (Tenerife)", "anio": 2023, "hectareas": 14700, "provincia": "Santa Cruz de Tenerife", "causa": "Intencionado", "nota": "El peor incendio de Canarias en d\u00e9cadas; afect\u00f3 al entorno del Teide.", "fuente": "Wikipedia \u2014 Incendio forestal de Tenerife de 2023", "perimetro": "aproximado (generado por IA, pendiente de revisi\u00f3n)"}, "geometry": {"type": "Polygon", "coordinates": [[[-16.3409, 28.33], [-16.3535, 28.3791], [-16.4055, 28.4024], [-16.4484, 28.3732], [-16.4642, 28.3442], [-16.4773, 28.3116], [-16.4493, 28.2853], [-16.4103, 28.2816], [-16.3497, 28.2781], [-16.3409, 28.33]]]}}]}